NORAD_CAT_ID,OBJECT_NAME,OBJECT_TYPE,EPOCH,MEAN_MOTION,ECCENTRICITY,INCLINATION,RA_OF_ASC_NODE,ARG_OF_PERICENTER,MEAN_ANOMALY,BSTAR,MEAN_MOTION_DOT,MEAN_MOTION_DDOT,TLE_LINE0,TLE_LINE1,TLE_LINE2,SEMIMAJOR_AXIS,PERIOD,APOGEE,PERIGEE,DECAYED
53570.0,STARLINK-4550,PAYLOAD,2023-06-02 17:09:36,15.08834607,0.0001106,53.2172,272.4728,84.1984,275.9135,6.5703e-06,-1.83e-06,0.0,0 STARLINK-4550,1 53570U 22101AV  23153.71500788 -.00000183  00000-0  65703-5 0  9995,2 53570  53.2172 272.4728 0001106  84.1984 275.9135 15.08834607 43827,6917.897,95.438,540.527,538.997,0.0
53570.0,STARLINK-4550,PAYLOAD,2023-06-03 13:49:37,15.08838859,8.27e-05,53.2155,268.6086,85.229,274.8796,-1.4391e-05,-5.17e-06,0.0,0 STARLINK-4550,1 53570U 22101AV  23154.57612841 -.00000517  00000-0 -14391-4 0  9992,2 53570  53.2155 268.6086 0000827  85.2290 274.8796 15.08838859 44648,6917.884,95.438,540.321,539.177,0.0
53570.0,STARLINK-4550,PAYLOAD,2023-06-03 15:25:00,15.08841104,8.5e-05,53.2157,268.311,91.7113,268.3976,9.3469e-06,-1.39e-06,0.0,0 STARLINK-4550,1 53570U 22101AV  23154.64236628 -.00000139  00000-0  93469-5 0  9998,2 53570  53.2157 268.3110 0000850  91.7113 268.3976 15.08841104 44653,6917.877,95.437,540.33,539.154,0.0
53570.0,STARLINK-4550,PAYLOAD,2023-06-04 00:57:18,15.08845516,8.53e-05,53.2157,266.5268,96.6049,263.504,9.6081e-06,-1.35e-06,0.0,0 STARLINK-4550,1 53570U 22101AV  23155.03980298 -.00000135  00000-0  96081-5 0  9990,2 53570  53.2157 266.5268 0000853  96.6049 263.5040 15.08845516 44023,6917.864,95.437,540.319,539.138,0.0
53570.0,STARLINK-4550,PAYLOAD,2023-06-04 13:40:23,15.08843638,9.42e-05,53.2157,264.1474,74.129,285.9806,0.00013106,1.799e-05,0.0,0 STARLINK-4550,1 53570U 22101AV  23155.56972195  .00001799  00000-0  13106-3 0  9996,2 53570  53.2157 264.1474 0000942  74.1290 285.9806 15.08843638 44799,6917.869,95.437,540.386,539.083,0.0
53570.0,STARLINK-4550,PAYLOAD,2023-06-05 10:20:25,15.08832474,7.7e-05,53.2154,260.2828,68.0734,292.034,0.00014722,2.056e-05,0.0,0 STARLINK-4550,1 53570U 22101AV  23156.43084738  .00002056  00000-0  14722-3 0  9992,2 53570  53.2154 260.2828 0000770  68.0734 292.0340 15.08832474 44237,6917.903,95.438,540.301,539.236,0.0
53570.0,STARLINK-4550,PAYLOAD,2023-06-05 13:31:11,15.08841597,9.07e-05,53.216,259.6873,83.4546,276.6549,0.00011687,1.573e-05,0.0,0 STARLINK-4550,1 53570U 22101AV  23156.56332237  .00001573  00000-0  11687-3 0  9996,2 53570  53.2160 259.6873 0000907  83.4546 276.6549 15.08841597 44943,6917.876,95.437,540.368,539.113,0.0
53570.0,STARLINK-4550,PAYLOAD,2023-06-05 16:41:57,15.08846896,8.86e-05,53.216,259.0913,85.6057,274.5037,5.5066e-05,5.89e-06,0.0,0 STARLINK-4550,1 53570U 22101AV  23156.69580022  .00000589  00000-0  55066-4 0  9993,2 53570  53.2160 259.0913 0000886  85.6057 274.5037 15.08846896 44967,6917.859,95.437,540.337,539.111,0.0
53570.0,STARLINK-4550,PAYLOAD,2023-06-06 07:00:26,15.08838135,9.23e-05,53.2154,256.4149,82.9945,277.1152,-2.8847e-05,-7.47e-06,0.0,0 STARLINK-4550,1 53570U 22101AV  23157.29196809 -.00000747  00000-0 -28847-4 0  9991,2 53570  53.2154 256.4149 0000923  82.9945 277.1152 15.08838135 44368,6917.886,95.438,540.39,539.113,0.0
53570.0,STARLINK-4550,PAYLOAD,2023-06-06 11:46:35,15.08839201,9e-05,53.2155,255.5229,84.2751,275.8344,-7.4854e-06,-4.07e-06,0.0,0 STARLINK-4550,1 53570U 22101AV  23157.49068672 -.00000407  00000-0 -74854-5 0  9992,2 53570  53.2155 255.5229 0000900  84.2751 275.8344 15.08839201 45086,6917.883,95.438,540.37,539.125,0.0
53570.0,STARLINK-4550,PAYLOAD,2023-06-06 16:32:44,15.08844093,9.87e-05,53.2158,254.6306,82.2042,277.9062,2.2987e-05,7.8e-07,0.0,0 STARLINK-4550,1 53570U 22101AV  23157.68940219  .00000078  00000-0  22987-4 0  9990,2 53570  53.2158 254.6306 0000987  82.2042 277.9062 15.08844093 44423,6917.868,95.437,540.416,539.05,0.0
53570.0,STARLINK-4550,PAYLOAD,2023-06-06 18:08:07,15.08849622,8.86e-05,53.2158,254.3333,85.4865,274.6229,-2.4345e-05,-6.75e-06,0.0,0 STARLINK-4550,1 53570U 22101AV  23157.75563971 -.00000675  00000-0 -24345-4 0  9999,2 53570  53.2158 254.3333 0000886  85.4865 274.6229 15.08849622 45126,6917.851,95.437,540.329,539.103,0.0
53570.0,STARLINK-4550,PAYLOAD,2023-06-07 06:51:13,15.08834664,9.77e-05,53.2163,251.9562,88.1194,271.991,-1.2127e-06,-3.07e-06,0.0,0 STARLINK-4550,1 53570U 22101AV  23158.28556965 -.00000307  00000-0 -12127-5 0  9991,2 53570  53.2163 251.9562 0000977  88.1194 271.9910 15.08834664 44514,6917.897,95.438,540.438,539.086,0.0
53570.0,STARLINK-4550,PAYLOAD,2023-06-07 16:23:31,15.08842182,0.000101,53.2156,250.171,92.6023,267.5085,4.0483e-05,3.57e-06,0.0,0 STARLINK-4550,1 53570U 22101AV  23158.68300372  .00000357  00000-0  40483-4 0  9992,2 53570  53.2156 250.1710 0001010  92.6023 267.5085 15.08842182 44576,6917.874,95.437,540.437,539.04,0.0
53570.0,STARLINK-4550,PAYLOAD,2023-06-07 22:45:04,15.08838045,0.0001144,53.2144,248.9813,91.27,268.8423,-1.7359e-05,-5.64e-06,0.0,0 STARLINK-4550,1 53570U 22101AV  23158.94796847 -.00000564  00000-0 -17359-4 0  9995,2 53570  53.2144 248.9813 0001144  91.2700 268.8423 15.08838045 44615,6917.886,95.438,540.543,538.96,0.0
53570.0,STARLINK-4550,PAYLOAD,2023-06-08 11:28:09,15.08837072,0.0001013,53.2157,246.6034,93.8417,266.2691,4.83e-05,4.81e-06,0.0,0 STARLINK-4550,1 53570U 22101AV  23159.47788899  .00000481  00000-0  48300-4 0  9998,2 53570  53.2157 246.6034 0001013  93.8417 266.2691 15.08837072 45380,6917.889,95.438,540.455,539.054,0.0
53570.0,STARLINK-4550,PAYLOAD,2023-06-08 17:49:41,15.08845512,9.55e-05,53.2155,245.4126,90.689,269.4212,9.0033e-05,1.146e-05,0.0,0 STARLINK-4550,1 53570U 22101AV  23159.74284237  .00001146  00000-0  90033-4 0  9994,2 53570  53.2155 245.4126 0000955  90.6890 269.4212 15.08845512 44731,6917.864,95.437,540.389,539.068,0.0
53570.0,STARLINK-4550,PAYLOAD,2023-06-09 04:57:24,15.08834494,0.0001724,53.2132,243.3356,69.655,290.4628,2.1551e-05,5.5e-07,0.0,0 STARLINK-4550,1 53570U 22101AV  23160.20653464  .00000055  00000-0  21551-4 0  9996,2 53570  53.2132 243.3356 0001724  69.6550 290.4628 15.08834494 44802,6917.897,95.438,540.955,538.57,0.0
53570.0,STARLINK-4550,PAYLOAD,2023-06-09 09:43:34,15.08832419,0.0001139,53.2143,242.4389,109.3191,250.7924,-2.2486e-05,-6.46e-06,0.0,0 STARLINK-4550,1 53570U 22101AV  23160.40525681 -.00000646  00000-0 -22486-4 0  9993,2 53570  53.2143 242.4389 0001139 109.3191 250.7924 15.08832419 45526,6917.904,95.438,540.557,538.981,0.0
53570.0,STARLINK-4550,PAYLOAD,2023-06-09 12:54:20,15.08836594,8.88e-05,53.2159,241.8452,83.4039,276.7054,-1.345e-05,-5.02e-06,0.0,0 STARLINK-4550,1 53570U 22101AV  23160.53773517 -.00000502  00000-0 -13450-4 0  9992,2 53570  53.2159 241.8452 0000888  83.4039 276.7054 15.08836594 45542,6917.891,95.438,540.37,539.141,0.0
53570.0,STARLINK-4550,PAYLOAD,2023-06-10 07:58:57,15.0884052,9.92e-05,53.2154,238.277,96.0024,264.1081,0.00010919,1.45e-05,0.0,0 STARLINK-4550,1 53570U 22101AV  23161.33261169  .00001450  00000-0  10919-3 0  9993,2 53570  53.2154 238.2770 0000992  96.0024 264.1081 15.08840520 44971,6917.879,95.438,540.43,539.058,0.0
53570.0,STARLINK-4550,PAYLOAD,2023-06-10 12:45:06,15.08847818,8.95e-05,53.2155,237.3848,79.6371,280.4722,0.00012722,1.738e-05,0.0,0 STARLINK-4550,1 53570U 22101AV  23161.53132815  .00001738  00000-0  12722-3 0  9993,2 53570  53.2155 237.3848 0000895  79.6371 280.4722 15.08847818 45692,6917.856,95.437,540.341,539.102,0.0
53570.0,STARLINK-4550,PAYLOAD,2023-06-11 11:00:31,15.08838577,9.96e-05,53.2146,233.2211,80.4578,279.6527,0.00010667,1.41e-05,0.0,0 STARLINK-4550,1 53570U 22101AV  23162.45869571  .00001410  00000-0  10667-3 0  9994,2 53570  53.2146 233.2211 0000996  80.4578 279.6527 15.08838577 45147,6917.885,95.438,540.439,539.061,0.0
53570.0,STARLINK-4550,PAYLOAD,2023-06-11 22:08:12,15.08843504,9.45e-05,53.2148,231.1399,82.4298,277.6801,0.00010785,1.429e-05,0.0,0 STARLINK-4550,1 53570U 22101AV  23162.92237203  .00001429  00000-0  10785-3 0  9998,2 53570  53.2148 231.1399 0000945  82.4298 277.6801 15.08843504 45901,6917.87,95.437,540.388,539.081,0.0
53570.0,STARLINK-4550,PAYLOAD,2023-06-12 04:29:45,15.08854631,0.0001158,53.2146,229.9503,75.9469,284.1652,-5.6352e-05,-1.185e-05,0.0,0 STARLINK-4550,1 53570U 22101AV  23163.18732861 -.00001185  00000-0 -56352-4 0  9999,2 53570  53.2146 229.9503 0001158  75.9469 284.1652 15.08854631 45253,6917.836,95.437,540.502,538.9,0.0
53570.0,STARLINK-4550,PAYLOAD,2023-06-12 10:51:17,15.08860041,0.0001196,53.2146,228.7609,74.625,285.4874,-8.6422e-05,-1.664e-05,0.0,0 STARLINK-4550,1 53570U 22101AV  23163.45228283 -.00001664  00000-0 -86422-4 0  9990,2 53570  53.2146 228.7609 0001196  74.6250 285.4874 15.08860041 45985,6917.819,95.436,540.512,538.857,0.0
53570.0,STARLINK-4550,PAYLOAD,2023-06-13 13:52:51,15.08836679,0.0001021,53.2152,223.7055,75.5505,284.56,1.4578e-05,-5.6e-07,0.0,0 STARLINK-4550,1 53570U 22101AV  23164.57837658 -.00000056  00000-0  14578-4 0  9992,2 53570  53.2152 223.7055 0001021  75.5505 284.5600 15.08836679 46159,6917.891,95.438,540.462,539.049,0.0
53570.0,STARLINK-4550,PAYLOAD,2023-06-13 23:25:10,15.08838737,0.0001031,53.215,221.921,75.9932,284.1174,3.4809e-05,2.66e-06,0.0,0 STARLINK-4550,1 53570U 22101AV  23164.97581500  .00000266  00000-0  34809-4 0  9999,2 53570  53.2150 221.9210 0001031  75.9932 284.1174 15.08838737 46215,6917.884,95.438,540.462,539.036,0.0
53570.0,STARLINK-4550,PAYLOAD,2023-06-14 20:05:11,15.08842505,0.0001009,53.2145,218.0548,63.6628,296.4468,4.5905e-06,-2.15e-06,0.0,0 STARLINK-4550,1 53570U 22101AV  23165.83693365 -.00000215  00000-0  45905-5 0  9993,2 53570  53.2145 218.0548 0001009  63.6628 296.4468 15.08842505 46345,6917.873,95.437,540.436,539.04,0.0
53570.0,STARLINK-4550,PAYLOAD,2023-06-14 23:15:57,15.088342,0.0001015,53.2151,217.4604,98.9686,261.1421,5.8635e-05,6.45e-06,0.0,0 STARLINK-4550,1 53570U 22101AV  23165.96941737  .00000645  00000-0  58635-4 0  9995,2 53570  53.2151 217.4604 0001015  98.9686 261.1421 15.08834200 45676,6917.898,95.438,540.465,539.061,0.0
